SL-16 R/B               
1 25400U 98043G   25356.13027175  .00000049  00000+0  39390-4 0  9992
2 25400  98.8141 304.0014 0008890 236.2477 123.7856 14.26027575427938
SL-16 R/B               
1 25407U 98045B   25356.22965350  .00000250  00000+0  15034-3 0  9999
2 25407  71.0117 344.4691 0006410 160.9748 199.1616 14.16176168416133
ISS (ZARYA)             
1 25544U 98067A   25355.95645853  .00010990  00000+0  20227-3 0  9999
2 25544  51.6324  96.8363 0003164 283.4657  76.5979 15.49714244544284
CZ-4B R/B               
1 25732U 99025C   25356.13285089  .00000059  00000+0  49254-4 0  9992
2 25732  98.6754  37.2023 0036693 206.5255 217.6172 14.18245912377177
OKEAN-O                 
1 25860U 99039A   25356.18610021  .00000732  00000+0  10322-3 0  9993
2 25860  97.9589  51.8056 0001025 112.4323 247.6998 14.80177414422920
SL-16 R/B               
1 25861U 99039B   25356.03704990  .00000557  00000+0  77602-4 0  9997
2 25861  98.0112  50.1884 0015622 145.3358 214.8876 14.81599269425366
DELTA 2 R/B             
1 25876U 99041E   25356.13123952  .00000830  00000+0  17348-3 0  9994
2 25876  51.7607 250.9556 0504503 119.4446 245.7806 14.11424845352077
HELIOS 1B               
1 25977U 99064A   25356.28950836  .00001666  00000+0  19103-3 0  9995
2 25977  98.1756 251.2384 0001140  31.9562 328.1722 14.87317622673759
TERRA                   
1 25994U 99068A   25356.25597071  .00000477  00000+0  10648-3 0  9997
2 25994  97.9734  47.5906 0003491  75.4737 353.6325 14.60912266383773
SL-16 R/B               
1 26070U 00006B   25356.15427908 -.00000030  00000+0  89048-5 0  9995
2 26070  71.0017 260.8628 0018579 295.8620  64.0587 14.15808356337584
TITAN 4B R/B            
1 26474U 00047B   25356.22262369  .00003316  00000+0  21511-3 0  9992
2 26474  67.9894 258.2216 0038240 133.1234 227.3125 15.08845677381227
ENVISAT                 
1 27386U 02009A   25352.94754304  .00000081  00000+0  39999-4 0  9991
2 27386  98.3609 303.5309 0001126  84.8976 298.2993 14.39001403247569
